ONEWEB-0675             
1 55834U 23029AQ  26166.31182359  .00000032  00000+0  46469-4 0  9991
2 55834  87.9167 305.3506 0002089 104.4463 255.6901 13.19724689158673
ONEWEB-0720             
1 55835U 23029AR  26166.07646949 -.00000073  00000+0 -21411-3 0  9991
2 55835  87.9165 305.3978 0001593 103.5708 256.5602 13.19724789158563
ONEWEB-0537             
1 56046U 23043A   26166.14268226  .00000068  00000+0  14524-3 0  9997
2 56046  87.9096 229.1776 0002275  99.7404 260.3984 13.16594191158696
ONEWEB-0538             
1 56047U 23043B   26166.13634862  .00000015  00000+0  67726-5 0  9996
2 56047  87.9099 229.1812 0002132 105.2905 254.8462 13.16595121158707
ONEWEB-0546             
1 56048U 23043C   26166.12368373  .00000024  00000+0  29929-4 0  9999
2 56048  87.9100 229.1838 0002762  97.5212 262.6233 13.16594960158693
ONEWEB-0547             
1 56049U 23043D   26166.28002000 -.00000082  00000+0 -23070-3 0  9995
2 56049  87.9261 244.3535 0001946 104.0971 256.0380 13.21825468157970
ONEWEB-0548             
1 56050U 23043E   26166.22420454  .00000106  00000+0  24434-3 0  9998
2 56050  87.9097 229.1601 0002013  85.1005 275.0356 13.16596386158701
ONEWEB-0549             
1 56051U 23043F   26166.27413637  .00000050  00000+0  89561-4 0  9990
2 56051  87.9253 244.3613 0002083 110.0004 250.1355 13.21825662157971
ONEWEB-0550             
1 56052U 23043G   26166.26069012  .00000060  00000+0  11429-3 0  9992
2 56052  87.9257 244.3616 0001914  93.4337 266.7016 13.21825574157973
ONEWEB-0551             
1 56053U 23043H   26166.25379788  .00000179  00000+0  44064-3 0  9998
2 56053  87.9002 259.6115 0001904 111.2776 248.8558 13.15549398156140
ONEWEB-0552             
1 56054U 23043J   26166.25561645  .00000123  00000+0  26705-3 0  9995
2 56054  87.9252 244.3682 0001825 100.1851 259.9489 13.21828431157974
ONEWEB-0553             
1 56055U 23043K   26166.13001299  .00000071  00000+0  15247-3 0  9998
2 56055  87.9096 229.1829 0002446  94.7609 265.3802 13.16594827158709
ONEWEB-0554             
1 56056U 23043L   26166.19335719  .00000552  00000+0  14105-2 0  9997
2 56056  87.9095 229.1790 0001943  82.5121 277.6231 13.16591085158694
ONEWEB-0555             
1 56057U 23043M   26166.23132515  .00000073  00000+0  15843-3 0  9991
2 56057  87.9100 229.1599 0002653  95.9596 264.1837 13.16596272158700
ONEWEB-0557             
1 56058U 23043N   26166.16959274  .00000179  00000+0  43567-3 0  9994
2 56058  87.9100 229.1822 0002815  73.6376 286.5064 13.16594486158692
ONEWEB-0558             
1 56059U 23043P   26166.24888847  .00000135  00000+0  29605-3 0  9990
2 56059  87.9254 244.3643 0002163 107.8638 252.2732 13.21827927157988
