[{"OBJECT_NAME":"ONEWEB-0675","OBJECT_ID":"2023-029AQ","EPOCH":"2026-06-15T07:29:01.558176","MEAN_MOTION":13.19724689,"ECCENTRICITY":0.0002089,"INCLINATION":87.9167,"RA_OF_ASC_NODE":305.3506,"ARG_OF_PERICENTER":104.4463,"MEAN_ANOMALY":255.6901,"EPHEMERIS_TYPE":0,"CLASSIFICATION_TYPE":"U","NORAD_CAT_ID":55834,"ELEMENT_SET_NO":999,"REV_AT_EPOCH":15867,"BSTAR":4.6469e-05,"MEAN_MOTION_DOT":3.2e-07,"MEAN_MOTION_DDOT":0.0},{"OBJECT_NAME":"ONEWEB-0720","OBJECT_ID":"2023-029AR","EPOCH":"2026-06-15T01:50:06.963936","MEAN_MOTION":13.19724789,"ECCENTRICITY":0.0001593,"INCLINATION":87.9165,"RA_OF_ASC_NODE":305.3978,"ARG_OF_PERICENTER":103.5708,"MEAN_ANOMALY":256.5602,"EPHEMERIS_TYPE":0,"CLASSIFICATION_TYPE":"U","NORAD_CAT_ID":55835,"ELEMENT_SET_NO":999,"REV_AT_EPOCH":15856,"BSTAR":-0.00021411,"MEAN_MOTION_DOT":-7.3e-07,"MEAN_MOTION_DDOT":0.0},{"OBJECT_NAME":"ONEWEB-0537","OBJECT_ID":"2023-043A","EPOCH":"2026-06-15T03:25:27.747264","MEAN_MOTION":13.16594191,"ECCENTRICITY":0.0002275,"INCLINATION":87.9096,"RA_OF_ASC_NODE":229.1776,"ARG_OF_PERICENTER":99.7404,"MEAN_ANOMALY":260.3984,"EPHEMERIS_TYPE":0,"CLASSIFICATION_TYPE":"U","NORAD_CAT_ID":56046,"ELEMENT_SET_NO":999,"REV_AT_EPOCH":15869,"BSTAR":0.00014524,"MEAN_MOTION_DOT":6.8e-07,"MEAN_MOTION_DDOT":0.0},{"OBJECT_NAME":"ONEWEB-0538","OBJECT_ID":"2023-043B","EPOCH":"2026-06-15T03:16:20.520768","MEAN_MOTION":13.16595121,"ECCENTRICITY":0.0002132,"INCLINATION":87.9099,"RA_OF_ASC_NODE":229.1812,"ARG_OF_PERICENTER":105.2905,"MEAN_ANOMALY":254.8462,"EPHEMERIS_TYPE":0,"CLASSIFICATION_TYPE":"U","NORAD_CAT_ID":56047,"ELEMENT_SET_NO":999,"REV_AT_EPOCH":15870,"BSTAR":6.7726e-06,"MEAN_MOTION_DOT":1.5e-07,"MEAN_MOTION_DDOT":0.0},{"OBJECT_NAME":"ONEWEB-0546","OBJECT_ID":"2023-043C","EPOCH":"2026-06-15T02:58:06.274272","MEAN_MOTION":13.1659496,"ECCENTRICITY":0.0002762,"INCLINATION":87.91,"RA_OF_ASC_NODE":229.1838,"ARG_OF_PERICENTER":97.5212,"MEAN_ANOMALY":262.6233,"EPHEMERIS_TYPE":0,"CLASSIFICATION_TYPE":"U","NORAD_CAT_ID":56048,"ELEMENT_SET_NO":999,"REV_AT_EPOCH":15869,"BSTAR":2.9929e-05,"MEAN_MOTION_DOT":2.4e-07,"MEAN_MOTION_DDOT":0.0},{"OBJECT_NAME":"ONEWEB-0547","OBJECT_ID":"2023-043D","EPOCH":"2026-06-15T06:43:13.728000","MEAN_MOTION":13.21825468,"ECCENTRICITY":0.0001946,"INCLINATION":87.9261,"RA_OF_ASC_NODE":244.3535,"ARG_OF_PERICENTER":104.0971,"MEAN_ANOMALY":256.038,"EPHEMERIS_TYPE":0,"CLASSIFICATION_TYPE":"U","NORAD_CAT_ID":56049,"ELEMENT_SET_NO":999,"REV_AT_EPOCH":15797,"BSTAR":-0.0002307,"MEAN_MOTION_DOT":-8.2e-07,"MEAN_MOTION_DDOT":0.0},{"OBJECT_NAME":"ONEWEB-0548","OBJECT_ID":"2023-043E","EPOCH":"2026-06-15T05:22:51.272256","MEAN_MOTION":13.16596386,"ECCENTRICITY":0.0002013,"INCLINATION":87.9097,"RA_OF_ASC_NODE":229.1601,"ARG_OF_PERICENTER":85.1005,"MEAN_ANOMALY":275.0356,"EPHEMERIS_TYPE":0,"CLASSIFICATION_TYPE":"U","NORAD_CAT_ID":56050,"ELEMENT_SET_NO":999,"REV_AT_EPOCH":15870,"BSTAR":0.00024434,"MEAN_MOTION_DOT":1.06e-06,"MEAN_MOTION_DDOT":0.0},{"OBJECT_NAME":"ONEWEB-0549","OBJECT_ID":"2023-043F","EPOCH":"2026-06-15T06:34:45.382368","MEAN_MOTION":13.21825662,"ECCENTRICITY":0.0002083,"INCLINATION":87.9253,"RA_OF_ASC_NODE":244.3613,"ARG_OF_PERICENTER":110.0004,"MEAN_ANOMALY":250.1355,"EPHEMERIS_TYPE":0,"CLASSIFICATION_TYPE":"U","NORAD_CAT_ID":56051,"ELEMENT_SET_NO":999,"REV_AT_EPOCH":15797,"BSTAR":8.9561e-05,"MEAN_MOTION_DOT":5e-07,"MEAN_MOTION_DDOT":0.0},{"OBJECT_NAME":"ONEWEB-0550","OBJECT_ID":"2023-043G","EPOCH":"2026-06-15T06:15:23.626368","MEAN_MOTION":13.21825574,"ECCENTRICITY":0.0001914,"INCLINATION":87.9257,"RA_OF_ASC_NODE":244.3616,"ARG_OF_PERICENTER":93.4337,"MEAN_ANOMALY":266.7016,"EPHEMERIS_TYPE":0,"CLASSIFICATION_TYPE":"U","NORAD_CAT_ID":56052,"ELEMENT_SET_NO":999,"REV_AT_EPOCH":15797,"BSTAR":0.00011429,"MEAN_MOTION_DOT":6e-07,"MEAN_MOTION_DDOT":0.0},{"OBJECT_NAME":"ONEWEB-0551","OBJECT_ID":"2023-043H","EPOCH":"2026-06-15T06:05:28.136832","MEAN_MOTION":13.15549398,"ECCENTRICITY":0.0001904,"INCLINATION":87.9002,"RA_OF_ASC_NODE":259.6115,"ARG_OF_PERICENTER":111.2776,"MEAN_ANOMALY":248.8558,"EPHEMERIS_TYPE":0,"CLASSIFICATION_TYPE":"U","NORAD_CAT_ID":56053,"ELEMENT_SET_NO":999,"REV_AT_EPOCH":15614,"BSTAR":0.00044064,"MEAN_MOTION_DOT":1.79e-06,"MEAN_MOTION_DDOT":0.0},{"OBJECT_NAME":"ONEWEB-0552","OBJECT_ID":"2023-043J","EPOCH":"2026-06-15T06:08:05.261280","MEAN_MOTION":13.21828431,"ECCENTRICITY":0.0001825,"INCLINATION":87.9252,"RA_OF_ASC_NODE":244.3682,"ARG_OF_PERICENTER":100.1851,"MEAN_ANOMALY":259.9489,"EPHEMERIS_TYPE":0,"CLASSIFICATION_TYPE":"U","NORAD_CAT_ID":56054,"ELEMENT_SET_NO":999,"REV_AT_EPOCH":15797,"BSTAR":0.00026705,"MEAN_MOTION_DOT":1.23e-06,"MEAN_MOTION_DDOT":0.0},{"OBJECT_NAME":"ONEWEB-0553","OBJECT_ID":"2023-043K","EPOCH":"2026-06-15T03:07:13.122336","MEAN_MOTION":13.16594827,"ECCENTRICITY":0.0002446,"INCLINATION":87.9096,"RA_OF_ASC_NODE":229.1829,"ARG_OF_PERICENTER":94.7609,"MEAN_ANOMALY":265.3802,"EPHEMERIS_TYPE":0,"CLASSIFICATION_TYPE":"U","NORAD_CAT_ID":56055,"ELEMENT_SET_NO":999,"REV_AT_EPOCH":15870,"BSTAR":0.00015247,"MEAN_MOTION_DOT":7.1e-07,"MEAN_MOTION_DDOT":0.0},{"OBJECT_NAME":"ONEWEB-0554","OBJECT_ID":"2023-043L","EPOCH":"2026-06-15T04:38:26.061216","MEAN_MOTION":13.16591085,"ECCENTRICITY":0.0001943,"INCLINATION":87.9095,"RA_OF_ASC_NODE":229.179,"ARG_OF_PERICENTER":82.5121,"MEAN_ANOMALY":277.6231,"EPHEMERIS_TYPE":0,"CLASSIFICATION_TYPE":"U","NORAD_CAT_ID":56056,"ELEMENT_SET_NO":999,"REV_AT_EPOCH":15869,"BSTAR":0.0014105,"MEAN_MOTION_DOT":5.52e-06,"MEAN_MOTION_DDOT":0.0},{"OBJECT_NAME":"ONEWEB-0555","OBJECT_ID":"2023-043M","EPOCH":"2026-06-15T05:33:06.492960","MEAN_MOTION":13.16596272,"ECCENTRICITY":0.0002653,"INCLINATION":87.91,"RA_OF_ASC_NODE":229.1599,"ARG_OF_PERICENTER":95.9596,"MEAN_ANOMALY":264.1837,"EPHEMERIS_TYPE":0,"CLASSIFICATION_TYPE":"U","NORAD_CAT_ID":56057,"ELEMENT_SET_NO":999,"REV_AT_EPOCH":15870,"BSTAR":0.00015842999999999999,"MEAN_MOTION_DOT":7.3e-07,"MEAN_MOTION_DDOT":0.0},{"OBJECT_NAME":"ONEWEB-0557","OBJECT_ID":"2023-043N","EPOCH":"2026-06-15T04:04:12.812736","MEAN_MOTION":13.16594486,"ECCENTRICITY":0.0002815,"INCLINATION":87.91,"RA_OF_ASC_NODE":229.1822,"ARG_OF_PERICENTER":73.6376,"MEAN_ANOMALY":286.5064,"EPHEMERIS_TYPE":0,"CLASSIFICATION_TYPE":"U","NORAD_CAT_ID":56058,"ELEMENT_SET_NO":999,"REV_AT_EPOCH":15869,"BSTAR":0.00043567000000000004,"MEAN_MOTION_DOT":1.79e-06,"MEAN_MOTION_DDOT":0.0},{"OBJECT_NAME":"ONEWEB-0558","OBJECT_ID":"2023-043P","EPOCH":"2026-06-15T05:58:23.963808","MEAN_MOTION":13.21827927,"ECCENTRICITY":0.0002163,"INCLINATION":87.9254,"RA_OF_ASC_NODE":244.3643,"ARG_OF_PERICENTER":107.8638,"MEAN_ANOMALY":252.2732,"EPHEMERIS_TYPE":0,"CLASSIFICATION_TYPE":"U","NORAD_CAT_ID":56059,"ELEMENT_SET_NO":999,"REV_AT_EPOCH":15798,"BSTAR":0.00029604999999999996,"MEAN_MOTION_DOT":1.35e-06,"MEAN_MOTION_DDOT":0.0}]